NORAD_CAT_ID,OBJECT_NAME,OBJECT_TYPE,EPOCH,MEAN_MOTION,ECCENTRICITY,INCLINATION,RA_OF_ASC_NODE,ARG_OF_PERICENTER,MEAN_ANOMALY,BSTAR,MEAN_MOTION_DOT,MEAN_MOTION_DDOT,TLE_LINE0,TLE_LINE1,TLE_LINE2,SEMIMAJOR_AXIS,PERIOD,APOGEE,PERIGEE,DECAYED
54784.0,STARLINK-5442,PAYLOAD,2023-11-25 00:18:33,15.08846362,0.0001466,53.2144,195.3758,115.0503,245.0641,5.0522e-05,5.16e-06,0.0,0 STARLINK-5442,1 54784U 22175AC  23329.01289283  .00000516  00000-0  50522-4 0  9997,2 54784  53.2144 195.3758 0001466 115.0503 245.0641 15.08846362 51606,6917.861,95.437,540.74,538.712,0.0
54784.0,STARLINK-5442,PAYLOAD,2023-11-25 22:33:57,15.08863996,0.0001471,53.2142,191.2135,112.1628,247.952,0.00065098,0.00010094,0.0,0 STARLINK-5442,1 54784U 22175AC  23329.94024992  .00010094  00000-0  65098-3 0  9998,2 54784  53.2142 191.2135 0001471 112.1628 247.9520 15.08863996 53904,6917.807,95.436,540.69,538.654,0.0
54784.0,STARLINK-5442,PAYLOAD,2023-11-26 00:09:20,15.08867844,0.000137,53.214,190.9154,108.2627,251.8514,0.00078575,0.00012249,0.0,0 STARLINK-5442,1 54784U 22175AC  23330.00648889  .00012249  00000-0  78575-3 0  9992,2 54784  53.2140 190.9154 0001370 108.2627 251.8514 15.08867844 51756,6917.795,95.436,540.608,538.713,0.0
54784.0,STARLINK-5442,PAYLOAD,2023-11-26 14:27:49,15.08845651,0.0001466,53.214,188.2411,98.729,261.3868,0.0001217,1.65e-05,0.0,0 STARLINK-5442,1 54784U 22175AC  23330.60265346  .00001650  00000-0  12170-3 0  9994,2 54784  53.2140 188.2411 0001466  98.7290 261.3868 15.08845651 54008,6917.863,95.437,540.742,538.714,0.0
54784.0,STARLINK-5442,PAYLOAD,2023-11-26 19:13:58,15.08841295,0.0001359,53.2136,187.3463,115.3738,244.7395,4.4992e-05,4.28e-06,0.0,0 STARLINK-5442,1 54784U 22175AC  23330.80137374  .00000428  00000-0  44992-4 0  9995,2 54784  53.2136 187.3463 0001359 115.3738 244.7395 15.08841295 51876,6917.876,95.437,540.682,538.801,0.0
54784.0,STARLINK-5442,PAYLOAD,2023-11-26 22:24:44,15.08841327,0.0001359,53.2141,186.7513,116.5684,243.5448,4.4762e-05,4.25e-06,0.0,0 STARLINK-5442,1 54784U 22175AC  23330.93385405  .00000425  00000-0  44762-4 0  9991,2 54784  53.2141 186.7513 0001359 116.5684 243.5448 15.08841327 54059,6917.876,95.437,540.681,538.801,0.0
54784.0,STARLINK-5442,PAYLOAD,2023-11-27 00:00:08,15.08840976,0.0001314,53.2137,186.4546,114.941,245.1719,1.6813e-05,-2e-07,0.0,0 STARLINK-5442,1 54784U 22175AC  23331.00009434 -.00000020  00000-0  16813-4 0  9993,2 54784  53.2137 186.4546 0001314 114.9410 245.1719 15.08840976 54066,6917.877,95.437,540.651,538.833,0.0
54784.0,STARLINK-5442,PAYLOAD,2023-11-27 19:04:46,15.08838807,0.0001248,53.2138,182.8867,89.8633,270.2502,6.8776e-05,8.07e-06,0.0,0 STARLINK-5442,1 54784U 22175AC  23331.79497754  .00000807  00000-0  68776-4 0  9992,2 54784  53.2138 182.8867 0001248  89.8633 270.2502 15.08838807 52029,6917.884,95.438,540.612,538.886,0.0
54784.0,STARLINK-5442,PAYLOAD,2023-11-27 20:40:09,15.08843499,0.0001322,53.2139,182.5888,100.4957,259.6184,7.9224e-05,9.73e-06,0.0,0 STARLINK-5442,1 54784U 22175AC  23331.86121557  .00000973  00000-0  79224-4 0  9999,2 54784  53.2139 182.5888 0001322 100.4957 259.6184 15.08843499 54192,6917.87,95.437,540.649,538.82,0.0
54784.0,STARLINK-5442,PAYLOAD,2023-11-28 20:30:56,15.08837504,0.0001327,53.2147,178.1266,85.2429,274.8715,0.00029637,4.432e-05,0.0,0 STARLINK-5442,1 54784U 22175AC  23332.85482199  .00004432  00000-0  29637-3 0  9997,2 54784  53.2147 178.1266 0001327  85.2429 274.8715 15.08837504 52187,6917.888,95.438,540.671,538.835,0.0
54784.0,STARLINK-5442,PAYLOAD,2023-11-28 23:41:43,15.08834355,0.0001374,53.2146,177.5332,79.8378,280.2769,0.00038381,5.825e-05,0.0,0 STARLINK-5442,1 54784U 22175AC  23332.98730425  .00005825  00000-0  38381-3 0  9992,2 54784  53.2146 177.5332 0001374  79.8378 280.2769 15.08834355 54360,6917.898,95.438,540.713,538.812,0.0
54784.0,STARLINK-5442,PAYLOAD,2023-11-30 18:37:08,15.08829861,0.0001491,53.2156,169.5034,105.7526,254.3631,-4.1397e-05,-9.47e-06,0.0,0 STARLINK-5442,1 54784U 22175AC  23334.77578963 -.00000947  00000-0 -41397-4 0  9992,2 54784  53.2156 169.5034 0001491 105.7526 254.3631 15.08829861 52471,6917.911,95.438,540.808,538.745,0.0
54784.0,STARLINK-5442,PAYLOAD,2023-12-01 12:06:23,15.08825864,0.0001515,53.2171,166.232,109.6237,250.4919,6.7807e-06,-1.8e-06,0.0,0 STARLINK-5442,1 54784U 22175AC  23335.50444249 -.00000180  00000-0  67807-5 0  9996,2 54784  53.2171 166.2320 0001515 109.6237 250.4919 15.08825864 52586,6917.924,95.438,540.837,538.741,0.0
54784.0,STARLINK-5442,PAYLOAD,2023-12-01 18:27:56,15.08831931,0.0001515,53.2165,165.0465,111.1535,248.9619,3.119e-05,2.08e-06,0.0,0 STARLINK-5442,1 54784U 22175AC  23335.76939955  .00000208  00000-0  31190-4 0  9992,2 54784  53.2165 165.0465 0001515 111.1535 248.9619 15.08831931 54780,6917.905,95.438,540.818,538.722,0.0
54784.0,STARLINK-5442,PAYLOAD,2023-12-02 11:57:10,15.088442,0.0001418,53.2161,161.7735,106.3583,253.7565,0.00039366,5.983e-05,0.0,0 STARLINK-5442,1 54784U 22175AC  23336.49803470  .00005983  00000-0  39366-3 0  9992,2 54784  53.2161 161.7735 0001418 106.3583 253.7565 15.08844200 52730,6917.868,95.437,540.714,538.752,0.0
54784.0,STARLINK-5442,PAYLOAD,2023-12-02 19:54:05,15.08851515,0.0001261,53.2151,160.2874,80.0723,280.0411,0.0004829,7.408e-05,0.0,0 STARLINK-5442,1 54784U 22175AC  23336.82923444  .00007408  00000-0  48290-3 0  9993,2 54784  53.2151 160.2874 0001261  80.0723 280.0411 15.08851515 54942,6917.845,95.437,540.583,538.838,0.0
54784.0,STARLINK-5442,PAYLOAD,2023-12-03 11:47:57,15.08849643,0.0001453,53.2153,157.3146,69.9736,290.1413,0.00018818,2.709e-05,0.0,0 STARLINK-5442,1 54784U 22175AC  23337.49163276  .00002709  00000-0  18818-3 0  9998,2 54784  53.2153 157.3146 0001453  69.9736 290.1413 15.08849643 52880,6917.851,95.437,540.721,538.711,0.0
54784.0,STARLINK-5442,PAYLOAD,2023-12-04 11:38:43,15.08848611,0.0001238,53.2148,152.8513,90.1477,269.9657,0.00022013,3.218e-05,0.0,0 STARLINK-5442,1 54784U 22175AC  23338.48522698  .00003218  00000-0  22013-3 0  9993,2 54784  53.2148 152.8513 0001238  90.1477 269.9657 15.08848611 55196,6917.854,95.437,540.575,538.863,0.0
54784.0,STARLINK-5442,PAYLOAD,2023-12-05 21:01:48,15.0885158,0.0001086,53.2159,146.6051,109.3834,250.7276,0.00024094,3.55e-05,0.0,0 STARLINK-5442,1 54784U 22175AC  23339.87626057  .00003550  00000-0  24094-3 0  9991,2 54784  53.2159 146.6051 0001086 109.3834 250.7276 15.08851580 55405,6917.845,95.437,540.461,538.959,0.0
54784.0,STARLINK-5442,PAYLOAD,2023-12-06 20:52:36,15.08842234,0.000131,53.2153,142.1469,80.0246,280.0894,3.9511e-05,3.41e-06,0.0,0 STARLINK-5442,1 54784U 22175AC  23340.86986276  .00000341  00000-0  39511-4 0  9990,2 54784  53.2153 142.1469 0001310  80.0246 280.0894 15.08842234 55559,6917.874,95.437,540.645,538.832,0.0
54784.0,STARLINK-5442,PAYLOAD,2023-12-07 11:11:04,15.08836887,0.0001276,53.2153,139.4693,86.4218,273.692,-2.6696e-05,-7.13e-06,0.0,0 STARLINK-5442,1 54784U 22175AC  23341.46602500 -.00000713  00000-0 -26696-4 0  9997,2 54784  53.2153 139.4693 0001276  86.4218 273.6920 15.08836887 55642,6917.89,95.438,540.638,538.872,0.0
54784.0,STARLINK-5442,PAYLOAD,2023-12-07 20:43:23,15.08837036,0.000135,53.2152,137.6863,79.6072,280.5072,-2.167e-05,-6.33e-06,0.0,0 STARLINK-5442,1 54784U 22175AC  23341.86346617 -.00000633  00000-0 -21670-4 0  9993,2 54784  53.2152 137.6863 0001350  79.6072 280.5072 15.08837036 53544,6917.889,95.438,540.688,538.821,0.0
54784.0,STARLINK-5442,PAYLOAD,2023-12-08 11:01:51,15.0883687,0.000128,53.2149,135.0101,85.1332,274.9806,-9.936e-07,-3.04e-06,0.0,0 STARLINK-5442,1 54784U 22175AC  23342.45962659 -.00000304  00000-0 -99360-6 0  9997,2 54784  53.2149 135.0101 0001280  85.1332 274.9806 15.08836870 55796,6917.89,95.438,540.64,538.869,0.0
54784.0,STARLINK-5442,PAYLOAD,2023-12-09 10:52:39,15.08834147,0.0001233,53.2166,130.5498,91.5073,268.606,6.3998e-05,7.31e-06,0.0,0 STARLINK-5442,1 54784U 22175AC  23343.45323262  .00000731  00000-0  63998-4 0  9997,2 54784  53.2166 130.5498 0001233  91.5073 268.6060 15.08834147 53789,6917.898,95.438,540.616,538.91,0.0
54784.0,STARLINK-5442,PAYLOAD,2023-12-10 13:54:12,15.08837757,0.0001287,53.2161,125.4941,94.8328,265.2811,3.8488e-05,3.25e-06,0.0,0 STARLINK-5442,1 54784U 22175AC  23344.57931300  .00000325  00000-0  38488-4 0  9994,2 54784  53.2161 125.4941 0001287  94.8328 265.2811 15.08837757 56115,6917.887,95.438,540.643,538.862,0.0
54784.0,STARLINK-5442,PAYLOAD,2023-12-10 17:04:58,15.08838165,0.0001241,53.2165,124.9005,89.0304,271.0831,8.2347e-05,1.023e-05,0.0,0 STARLINK-5442,1 54784U 22175AC  23344.71179354  .00001023  00000-0  82347-4 0  9992,2 54784  53.2165 124.9005 0001241  89.0304 271.0831 15.08838165 53976,6917.886,95.438,540.61,538.892,0.0
54784.0,STARLINK-5442,PAYLOAD,2023-12-11 13:44:59,15.08842766,0.0001264,53.2164,121.0328,83.243,276.8706,0.00011101,1.479e-05,0.0,0 STARLINK-5442,1 54784U 22175AC  23345.57291014  .00001479  00000-0  11101-3 0  9999,2 54784  53.2164 121.0328 0001264  83.2430 276.8706 15.08842766 56263,6917.872,95.437,540.611,538.863,0.0
54784.0,STARLINK-5442,PAYLOAD,2023-12-11 16:55:45,15.08846129,0.0001302,53.2168,120.4396,78.6113,281.5025,0.0001351,1.863e-05,0.0,0 STARLINK-5442,1 54784U 22175AC  23345.70538792  .00001863  00000-0  13510-3 0  9994,2 54784  53.2168 120.4396 0001302  78.6113 281.5025 15.08846129 54121,6917.862,95.437,540.627,538.826,0.0
54784.0,STARLINK-5442,PAYLOAD,2023-12-12 15:11:09,15.0884093,0.0001534,53.2174,116.2737,69.5161,290.5996,4.0895e-05,3.63e-06,0.0,0 STARLINK-5442,1 54784U 22175AC  23346.63275369  .00000363  00000-0  40895-4 0  9996,2 54784  53.2174 116.2737 0001534  69.5161 290.5996 15.08840930 54265,6917.878,95.437,540.804,538.681,0.0
54784.0,STARLINK-5442,PAYLOAD,2023-12-13 13:26:33,15.08850475,0.000133,53.2179,112.1111,77.3631,282.751,-2.1461e-05,-6.3e-06,0.0,0 STARLINK-5442,1 54784U 22175AC  23347.56010708 -.00000630  00000-0 -21461-4 0  9990,2 54784  53.2179 112.1111 0001330  77.3631 282.7510 15.08850475 56569,6917.848,95.437,540.633,538.793,0.0
